GOES 1 (SMS-C)          
1 08366U 75100A   26073.68692965  .00000016  00000+0  00000+0 0  9990
2 08366   4.8482 278.6286 0005251   1.3510  17.7194  1.00239625184126
GOES 2                  
1 10061U 77048A   26073.80380553 -.00000006  00000+0  00000+0 0  9999
2 10061   6.6444 294.1408 0013928  48.8141 201.6146  0.99393322 45336
GOES 3                  
1 10953U 78062A   26073.56989043 -.00000295  00000+0  00000+0 0  9998
2 10953   7.1167 299.9787 0002447 358.8997 203.7067  0.99362842127591
GOES 4                  
1 11964U 80074A   26073.55052204 -.00000048  00000+0  00000+0 0  9992
2 11964   8.1902 303.6614 0032318 103.3413 232.8625  0.99227917126494
GOES 5                  
1 12472U 81049A   26073.37784880 -.00000176  00000+0  00000+0 0  9994
2 12472   9.5282 316.2812 0004574 339.5527 281.3209  1.00209622121899
GOES 6                  
1 14050U 83041A   26073.68909633 -.00000051  00000+0  00000+0 0  9993
2 14050  10.3413 321.8369 0002184 310.8842  36.1524  1.00218479215064
GOES 7                  
1 17561U 87022A   26072.32747086  .00000108  00000+0  00000+0 0  9990
2 17561  13.0128 338.3128 0004091  16.4870 148.7526  0.99898080126008
GOES 8                  
1 23051U 94022A   26073.73433653 -.00000184  00000+0  00000+0 0  9992
2 23051  14.3498  14.3931 0005364  16.8667 162.6449  0.98905319123197
GOES 9                  
1 23581U 95025A   26073.47061502  .00000020  00000+0  00000+0 0  9993
2 23581  13.8792  15.2412 0003243 209.1903 343.4937  0.98798943111825
GOES 10                 
1 24786U 97019A   26073.43669094  .00000073  00000+0  00000+0 0  9990
2 24786  13.0154  21.7714 0030638 238.7904 123.1937  0.99122438105132
GOES 11                 
1 26352U 00022A   26073.47330170  .00000062  00000+0  00000+0 0  9991
2 26352  11.6022  47.3458 0005720 258.1493 276.3533  0.99040167 51538
GOES 12                 
1 26871U 01031A   26073.90468317  .00000015  00000+0  00000+0 0  9999
2 26871  12.0147  38.0549 0008789 298.5175  58.9073  0.99134722 89825
EWS-G1 (GOES 13)        
1 29155U 06018A   26073.82052947 -.00000104  00000+0  00000+0 0  9996
2 29155   4.2864  77.5669 0061909 273.8148 309.5893  0.98788679 42315
GOES 14                 
1 35491U 09033A   26073.74984993  .00000109  00000+0  00000+0 0  9996
2 35491   1.4444  84.2599 0001679 274.2567 279.3050  1.00103496  5649
EWS-G2 (GOES 15)        
1 36411U 10008A   26073.93761663  .00000021  00000+0  00000+0 0  9994
2 36411   1.0327  84.9029 0002495  17.6924 110.8883  1.00270266 58692
GOES 16                 
1 41866U 16071A   26073.90433650 -.00000092  00000+0  00000+0 0  9998
2 41866   0.1245  86.9024 0002175 229.7377  76.7393  1.00272325 34150
GOES 17                 
1 43226U 18022A   26073.90728318 -.00000183  00000+0  00000+0 0  9997
2 43226   0.6936  87.3133 0001624 234.3614  87.9513  1.00272409 29474
